$$SOE
2461295.500000000, A.D. 2026-Sep-12 00:00:00.0000, 2.770896077990966E+08, -3.980378228108584E+07, 1.543682444533106E+07,
2461302.500000000, A.D. 2026-Sep-19 00:00:00.0000, 2.786876878017367E+08, -2.559665391029823E+07, 1.535328718091797E+07,
2461309.500000000, A.D. 2026-Sep-26 00:00:00.0000, 2.796715045617065E+08, -1.133312964619167E+07, 1.523590757945541E+07,
2461316.500000000, A.D. 2026-Oct-03 00:00:00.0000, 2.800391115262270E+08, 2.955347626641527E+06, 1.508495651617480E+07,
2461323.500000000, A.D. 2026-Oct-10 00:00:00.0000, 2.797906551995147E+08, 1.723731032222672E+07, 1.490081817001538E+07,
2461330.500000000, A.D. 2026-Oct-17 00:00:00.0000, 2.789283635334529E+08, 3.148144726662379E+07, 1.468398723790121E+07,
2461337.500000000, A.D. 2026-Oct-24 00:00:00.0000, 2.774565143554554E+08, 4.565678144629269E+07, 1.443506509427601E+07,
2461344.500000000, A.D. 2026-Oct-31 00:00:00.0000, 2.753813847202714E+08, 5.973284173502427E+07, 1.415475495919208E+07,
2461351.500000000, A.D. 2026-Nov-07 00:00:00.0000, 2.727111827201667E+08, 7.367982625019862E+07, 1.384385614966464E+07,
2461358.500000000, A.D. 2026-Nov-14 00:00:00.0000, 2.694559634806421E+08, 8.746875603208974E+07, 1.350325757981538E+07,
2461365.500000000, A.D. 2026-Nov-21 00:00:00.0000, 2.656275293307749E+08, 1.010716178447847E+08, 1.313393085328428E+07,
2461372.500000000, A.D. 2026-Nov-28 00:00:00.0000, 2.612393151934659E+08, 1.144614915517890E+08, 1.273692292374185E+07,
2461379.500000000, A.D. 2026-Dec-05 00:00:00.0000, 2.563062650022414E+08, 1.276126602232886E+08, 1.231334806662544E+07,
2461386.500000000, A.D. 2026-Dec-12 00:00:00.0000, 2.508447015653826E+08, 1.405007052831222E+08, 1.186437952973768E+07,
2461393.500000000, A.D. 2026-Dec-19 00:00:00.0000, 2.448721902744039E+08, 1.531025862778241E+08, 1.139124116454270E+07,
2461400.500000000, A.D. 2026-Dec-26 00:00:00.0000, 2.384073987619395E+08, 1.653967043280305E+08, 1.089519910279370E+07,
2461407.500000000, A.D. 2027-Jan-02 00:00:00.0000, 2.314699549329269E+08, 1.773629493236851E+08, 1.037755355078946E+07,
2461414.500000000, A.D. 2027-Jan-09 00:00:00.0000, 2.240803054862076E+08, 1.889827314245108E+08, 9.839630793928295E+06,
2461421.500000000, A.D. 2027-Jan-16 00:00:00.0000, 2.162595767768223E+08, 2.002389976633139E+08, 9.282775497844189E+06,
2461428.500000000, A.D. 2027-Jan-23 00:00:00.0000, 2.080294396678321E+08, 2.111162346037834E+08, 8.708343373655587E+06,
2461435.500000000, A.D. 2027-Jan-30 00:00:00.0000, 1.994119799341338E+08, 2.216004581533967E+08, 8.117694247090206E+06,
2461442.500000000, A.D. 2027-Feb-06 00:00:00.0000, 1.904295757851395E+08, 2.316791921310782E+08, 7.512185566919878E+06,
2461449.500000000, A.D. 2027-Feb-13 00:00:00.0000, 1.811047829536255E+08, 2.413414381272044E+08, 6.893166526330531E+06,
2461456.500000000, A.D. 2027-Feb-20 00:00:00.0000, 1.714602256513587E+08, 2.505776372045534E+08, 6.261972969217241E+06,
2461463.500000000, A.D. 2027-Feb-27 00:00:00.0000, 1.615184952453298E+08, 2.593796215834530E+08, 5.619922702004254E+06,
2461470.500000000, A.D. 2027-Mar-06 00:00:00.0000, 1.513020599554113E+08, 2.677405595494719E+08, 4.968311089707866E+06,
2461477.500000000, A.D. 2027-Mar-13 00:00:00.0000, 1.408331840673440E+08, 2.756548968717513E+08, 4.308407239199832E+06,
2461484.500000000, A.D. 2027-Mar-20 00:00:00.0000, 1.301338554684178E+08, 2.831182950631858E+08, 3.641450787906468E+06,
2461491.500000000, A.D. 2027-Mar-27 00:00:00.0000, 1.192257215194051E+08, 2.901275670111963E+08, 2.968649211716354E+06,
2461498.500000000, A.D. 2027-Apr-03 00:00:00.0000, 1.081300331721555E+08, 2.966806109081057E+08, 2.291175602052361E+06,
2461505.500000000, A.D. 2027-Apr-10 00:00:00.0000, 9.686759701605575E+07, 3.027763433751620E+08, 1.610166877500877E+06,
2461512.500000000, A.D. 2027-Apr-17 00:00:00.0000, 8.545873483298315E+07, 3.084146325302342E+08, 9.267223937567919E+05,
2461519.500000000, A.D. 2027-Apr-24 00:00:00.0000, 7.392325025142977E+07, 3.135962315966616E+08, 2.419029053311646E+05,
2461526.500000000, A.D. 2027-May-01 00:00:00.0000, 6.228040228090771E+07, 3.183227136408341E+08, -4.432701807013601E+05,
2461533.500000000, A.D. 2027-May-08 00:00:00.0000, 5.054888550079893E+07, 3.225964086547356E+08, -1.127815260331601E+06,
2461540.500000000, A.D. 2027-May-15 00:00:00.0000, 3.874681487493654E+07, 3.264203443157324E+08, -1.810790516638219E+06,
2461547.500000000, A.D. 2027-May-22 00:00:00.0000, 2.689171309966435E+07, 3.297981881168506E+08, -2.491293532540351E+06,
2461554.500000000, A.D. 2027-May-29 00:00:00.0000, 1.500050331592559E+07, 3.327341896213268E+08, -3.168460988972515E+06,
2461561.500000000, A.D. 2027-Jun-05 00:00:00.0000, 3.089507576723847E+06, 3.352331261460887E+08, -3.841468302890480E+06,
2461568.500000000, A.D. 2027-Jun-12 00:00:00.0000, -8.825551401927508E+06, 3.373002524093913E+08, -4.509529012922972E+06,
2461575.500000000, A.D. 2027-Jun-19 00:00:00.0000, -2.072954597960358E+07, 3.389412532599186E+08, -5.171893982846811E+06,
2461582.500000000, A.D. 2027-Jun-26 00:00:00.0000, -3.260793695206533E+07, 3.401621992413765E+08, -5.827850491982445E+06,
2461589.500000000, A.D. 2027-Jul-03 00:00:00.0000, -4.444676478033765E+07, 3.409695049832604E+08, -6.476721244235411E+06,
2461596.500000000, A.D. 2027-Jul-10 00:00:00.0000, -5.623263899608948E+07, 3.413698903799534E+08, -7.117863316841796E+06,
2461603.500000000, A.D. 2027-Jul-17 00:00:00.0000, -6.795272605796207E+07, 3.413703444469297E+08, -7.750667071628556E+06,
2461610.500000000, A.D. 2027-Jul-24 00:00:00.0000, -7.959473578252164E+07, 3.409780916958527E+08, -8.374555062126145E+06,
2461617.500000000, A.D. 2027-Jul-31 00:00:00.0000, -9.114690619328806E+07, 3.402005611513832E+08, -8.988980966296628E+06,
2461624.500000000, A.D. 2027-Aug-07 00:00:00.0000, -1.025979872226916E+08, 3.390453590430512E+08, -9.593428441944703E+06,
2461631.500000000, A.D. 2027-Aug-14 00:00:00.0000, -1.139372257764880E+08, 3.375202448038415E+08, -1.018740972382848E+07,
2461638.500000000, A.D. 2027-Aug-21 00:00:00.0000, -1.251543517196188E+08, 3.356331068899967E+08, -1.077046430215850E+07,
2461645.500000000, A.D. 2027-Aug-28 00:00:00.0000, -1.362395615110708E+08, 3.333919395004299E+08, -1.134215790550202E+07,
2461652.500000000, A.D. 2027-Sep-04 00:00:00.0000, -1.471835008049770E+08, 3.308048225824701E+08, -1.190208148276004E+07,
2461659.500000000, A.D. 2027-Sep-11 00:00:00.0000, -1.579772475233822E+08, 3.278799043410334E+08, -1.244985011622396E+07,
2461666.500000000, A.D. 2027-Sep-18 00:00:00.0000, -1.686122953632016E+08, 3.246253854748943E+08, -1.298510193493742E+07,
2461673.500000000, A.D. 2027-Sep-25 00:00:00.0000, -1.790805375921921E+08, 3.210495049405902E+08, -1.350749705872402E+07,
2461680.500000000, A.D. 2027-Oct-02 00:00:00.0000, -1.893742511298559E+08, 3.171605271556386E+08, -1.401671658001071E+07,
2461687.500000000, A.D. 2027-Oct-09 00:00:00.0000, -1.994860809497559E+08, 3.129667305264236E+08, -1.451246158785379E+07,
2461694.500000000, A.D. 2027-Oct-16 00:00:00.0000, -2.094090247881655E+08, 3.084763971413149E+08, -1.499445224592121E+07,
2461701.500000000, A.D. 2027-Oct-23 00:00:00.0000, -2.191364179377012E+08, 3.036978035241681E+08, -1.546242694971743E+07,
2461708.500000000, A.D. 2027-Oct-30 00:00:00.0000, -2.286619177818939E+08, 2.986392129647201E+08, -1.591614154810485E+07,
2461715.500000000, A.D. 2027-Nov-06 00:00:00.0000, -2.379794892592273E+08, 2.933088704670314E+08, -1.635536843074813E+07,
2461722.500000000, A.D. 2027-Nov-13 00:00:00.0000, -2.470833932599778E+08, 2.877149981611497E+08, -1.677989546972790E+07,
2461729.500000000, A.D. 2027-Nov-20 00:00:00.0000, -2.559681750607146E+08, 2.818657889143711E+08, -1.718952525934808E+07,
2461736.500000000, A.D. 2027-Nov-27 00:00:00.0000, -2.646286511853086E+08, 2.757694010289553E+08, -1.758407455871135E+07,
2461743.500000000, A.D. 2027-Dec-04 00:00:00.0000, -2.730598967241279E+08, 2.694339548750013E+08, -1.796337367676724E+07,
2461750.500000000, A.D. 2027-Dec-11 00:00:00.0000, -2.812572336624088E+08, 2.628675304359669E+08, -1.832726582790053E+07,
2461757.500000000, A.D. 2027-Dec-18 00:00:00.0000, -2.892162199387527E+08, 2.560781653704711E+08, -1.867560650996380E+07,
2461764.500000000, A.D. 2027-Dec-25 00:00:00.0000, -2.969326390765005E+08, 2.490738535346028E+08, -1.900826291774471E+07,
2461771.500000000, A.D. 2028-Jan-01 00:00:00.0000, -3.044024903400905E+08, 2.418625439302819E+08, -1.932511339341079E+07,
$$EOE